STARLINK-6375           
1 57342U 23099Q   26171.00837997  .00000642  00000+0  32850-4 0  9997
2 57342  43.0064  31.2447 0001719 256.2879 103.7782 15.27576877161762
STARLINK-6379           
1 57343U 23099R   26171.02459259  .00000822  00000+0  39411-4 0  9991
2 57343  43.0040  34.7719 0001600 270.1573  89.9095 15.27577571161722
STARLINK-6380           
1 57344U 23099S   26170.98090682  .00000520  00000+0  28429-4 0  9999
2 57344  43.0031  34.4395 0001218 263.1491  96.9222 15.27582650161720
STARLINK-6373           
1 57345U 23099T   26170.99454846 -.00000309  00000+0 -17258-5 0  9993
2 57345  43.0023  37.9584 0001064 255.3161 104.7573 15.27576011161682
STARLINK-6359           
1 57346U 23099U   26170.96098641  .00000122  00000+0  13957-4 0  9990
2 57346  43.0026  31.7449 0001272 265.1656  94.9050 15.27577423161753
STARLINK-6378           
1 57347U 23099V   26171.00097080  .00000055  00000+0  11508-4 0  9998
2 57347  43.0026  38.0111 0001102 271.4178  88.6547 15.27577194161689
STARLINK-6372           
1 57348U 23099W   26171.01480408  .00000336  00000+0  21746-4 0  9997
2 57348  43.0037  31.2901 0001592 265.5311  94.5359 15.27580945161764
STARLINK-6376           
1 57349U 23099X   26170.99169251  .00001808  00000+0  75260-4 0  9999
2 57349  43.0049  31.1200 0002273 285.7329  74.3272 15.27569041162483
STARLINK-6362           
1 57350U 23099Y   26170.99519234  .00000854  00000+0  40571-4 0  9998
2 57350  43.0023  24.0890 0001539 278.3360  81.7317 15.27581227161830
STARLINK-6331           
1 57351U 23099Z   26171.04167036  .00011210  00000+0  41781-3 0  9996
2 57351  43.0040  30.6338 0001154 280.5811  79.4911 15.27458058161771
STARLINK-6297           
1 57352U 23099AA  26170.98876770  .00003176  00000+0  12496-3 0  9994
2 57352  43.0046  24.0384 0001530 268.1689  91.8987 15.27564742161846
STARLINK-6324           
1 57353U 23099AB  26170.99810169  .00000039  00000+0  10957-4 0  9992
2 57353  43.0044  31.1667 0001190 267.4317  92.6399 15.27576980161764
STARLINK-6293           
1 57354U 23099AC  26170.98619035 -.00000363  00000+0 -36399-5 0  9992
2 57354  43.0043  24.0142 0001782 267.1738  92.8910 15.27582037161844
STARLINK-6276           
1 57355U 23099AD  26171.00932723  .00000337  00000+0  21758-4 0  9990
2 57355  43.0023  24.1859 0001387 267.8310  92.2383 15.27577558161843
STARLINK-6355           
1 57356U 23099AE  26171.00033597 -.00000567  00000+0 -11076-4 0  9991
2 57356  43.0032  24.1173 0001321 267.4383  92.6318 15.27575747161847
STARLINK-5600           
1 57357U 23099AF  26170.97077632  .00000714  00000+0  35471-4 0  9992
2 57357  43.0061  23.9005 0001356 271.9492  88.1204 15.27580830161843
STARLINK-6299           
1 57358U 23099AG  26171.27715343  .00000719  00000+0  35654-4 0  9993
2 57358  43.0026  21.9087 0000834 274.6266  85.4490 15.27574977162632
STARLINK-6347           
1 57359U 23099AH  26170.99133497  .00000504  00000+0  27855-4 0  9992
2 57359  43.0056  24.0557 0001905 269.9113  90.1520 15.27579830161842
STARLINK-6348           
1 57360U 23099AJ  26171.28485795 -.00000004  00000+0  93670-5 0  9993
2 57360  43.0042  21.9593 0001206 263.9514  96.1200 15.27578916161898
STARLINK-6340           
1 57361U 23099AK  26171.00803759 -.00000696  00000+0 -15756-4 0  9994
2 57361  43.0039  24.1700 0001523 260.6903  99.3776 15.27580520161840
STARLINK-6343           
1 57362U 23099AL  26171.28871490  .00000092  00000+0  12864-4 0  9997
2 57362  43.0054  21.9835 0001002 266.1178  93.9559 15.27577316161881
STARLINK-6356           
1 57363U 23099AM  26171.28101080 -.00001078  00000+0 -29655-4 0  9992
2 57363  43.0038  21.9263 0000908 254.6985 105.3767 15.27584668161899
STARLINK-6338           
1 57364U 23099AN  26171.29256979 -.00000032  00000+0  83748-5 0  9994
2 57364  43.0048  22.0138 0001210 273.5484  86.5229 15.27575318161889
STARLINK-5007           
1 57365U 23099AP  26170.98362478  .00000739  00000+0  36407-4 0  9994
2 57365  43.0073  23.9851 0001947 267.5402  92.5227 15.27575924161844
STARLINK-6174           
1 57366U 23099AQ  26170.97976636  .00000553  00000+0  29641-4 0  9997
2 57366  43.0098  23.9612 0002100 267.7536  92.3076 15.27577297161844
STARLINK-6215           
1 57367U 23099AR  26170.55503501 -.00000186  00000+0  27430-5 0  9997
2 57367  43.0039   7.7995 0000734 262.2782  97.7987 15.27580505162744
STARLINK-6218           
1 57368U 23099AS  26170.98748058 -.00000090  00000+0  62672-5 0  9994
2 57368  43.0079  24.0183 0001979 258.3076 101.7554 15.27585030161848
STARLINK-6168           
1 57369U 23099AT  26171.29087206  .00029185  00000+0  10322-2 0  9998
2 57369  43.0045  22.0003 0002372 280.5461  79.5123 15.28633371161896
STARLINK-5353           
1 57370U 23099AU  26170.99390780 -.00000356  00000+0 -33872-5 0  9999
2 57370  43.0055  24.0652 0001717 273.5391  86.5265 15.27575618161845
STARLINK-6032           
1 57371U 23099AV  26170.97591681  .00000595  00000+0  31169-4 0  9990
2 57371  43.0068  23.9348 0001581 268.1577  91.9094 15.27575272161841
