OBJECT_NAME,OBJECT_ID,EPOCH,MEAN_MOTION,ECCENTRICITY,INCLINATION,RA_OF_ASC_NODE,ARG_OF_PERICENTER,MEAN_ANOMALY,EPHEMERIS_TYPE,CLASSIFICATION_TYPE,NORAD_CAT_ID,ELEMENT_SET_NO,REV_AT_EPOCH,BSTAR,MEAN_MOTION_DOT,MEAN_MOTION_DDOT
STARLINK-6375,2023-099Q,2026-06-20T00:12:04.029408,15.27576877,.0001719,43.0064,31.2447,256.2879,103.7782,0,U,57342,999,16176,.32850466E-4,.642E-5,0
STARLINK-6379,2023-099R,2026-06-20T00:35:24.799776,15.27577571,.00016002,43.0040,34.7719,270.1573,89.9095,0,U,57343,999,16172,.3941092E-4,.822E-5,0
STARLINK-6380,2023-099S,2026-06-19T23:32:30.349248,15.27582650,.00012187,43.0031,34.4395,263.1491,96.9222,0,U,57344,999,16172,.28429383E-4,.52E-5,0
STARLINK-6373,2023-099T,2026-06-19T23:52:08.986944,15.27576011,.00010649,43.0023,37.9584,255.3161,104.7573,0,U,57345,999,16168,-.1725773E-5,-.309E-5,0
STARLINK-6359,2023-099U,2026-06-19T23:03:49.225824,15.27577423,.00012728,43.0026,31.7449,265.1656,94.9050,0,U,57346,999,16175,.13956703E-4,.122E-5,0
STARLINK-6378,2023-099V,2026-06-20T00:01:23.877120,15.27577194,.00011025,43.0026,38.0111,271.4178,88.6547,0,U,57347,999,16168,.11507744E-4,.55E-6,0
STARLINK-6372,2023-099W,2026-06-20T00:21:19.072512,15.27580945,.00015926,43.0037,31.2901,265.5311,94.5359,0,U,57348,999,16176,.21745787E-4,.336E-5,0
STARLINK-6376,2023-099X,2026-06-19T23:48:02.232864,15.27569041,.00022739,43.0049,31.1200,285.7329,74.3272,0,U,57349,999,16248,.75259703E-4,.1808E-4,0
STARLINK-6362,2023-099Y,2026-06-19T23:53:04.618176,15.27581227,.00015395,43.0023,24.0890,278.3360,81.7317,0,U,57350,999,16183,.40571387E-4,.854E-5,0
STARLINK-6331,2023-099Z,2026-06-20T01:00:00.319104,15.27458058,.00011547,43.0040,30.6338,280.5811,79.4911,0,U,57351,999,16177,.4178142E-3,.1121E-3,0
STARLINK-6297,2023-099AA,2026-06-19T23:43:49.529280,15.27564742,.00015306,43.0046,24.0384,268.1689,91.8987,0,U,57352,999,16184,.12496098E-3,.3176E-4,0
STARLINK-6324,2023-099AB,2026-06-19T23:57:15.986016,15.27576980,.00011902,43.0044,31.1667,267.4317,92.6399,0,U,57353,999,16176,.10957458E-4,.39E-6,0
STARLINK-6293,2023-099AC,2026-06-19T23:40:06.846240,15.27582037,.00017828,43.0043,24.0142,267.1738,92.8910,0,U,57354,999,16184,-.3639896E-5,-.363E-5,0
STARLINK-6276,2023-099AD,2026-06-20T00:13:25.872672,15.27577558,.00013871,43.0023,24.1859,267.8310,92.2383,0,U,57355,999,16184,.21757504E-4,.337E-5,0
STARLINK-6355,2023-099AE,2026-06-20T00:00:29.027808,15.27575747,.00013211,43.0032,24.1173,267.4383,92.6318,0,U,57356,999,16184,-.11076466E-4,-.567E-5,0
STARLINK-5600,2023-099AF,2026-06-19T23:17:55.074048,15.27580830,.00013563,43.0061,23.9005,271.9492,88.1204,0,U,57357,999,16184,.35470555E-4,.714E-5,0
STARLINK-6299,2023-099AG,2026-06-20T06:39:06.056352,15.27574977,.00008349,43.0026,21.9087,274.6266,85.4490,0,U,57358,999,16263,.35653789E-4,.719E-5,0
STARLINK-6347,2023-099AH,2026-06-19T23:47:31.341408,15.27579830,.00019054,43.0056,24.0557,269.9113,90.1520,0,U,57359,999,16184,.27854711E-4,.504E-5,0
STARLINK-6348,2023-099AJ,2026-06-20T06:50:11.726880,15.27578916,.00012066,43.0042,21.9593,263.9514,96.1200,0,U,57360,999,16189,.9366994E-5,-.4E-7,0
STARLINK-6340,2023-099AK,2026-06-20T00:11:34.447776,15.27580520,.00015239,43.0039,24.1700,260.6903,99.3776,0,U,57361,999,16184,-.15755788E-4,-.696E-5,0
STARLINK-6343,2023-099AL,2026-06-20T06:55:44.967360,15.27577316,.00010024,43.0054,21.9835,266.1178,93.9559,0,U,57362,999,16188,.12863984E-4,.92E-6,0
STARLINK-6356,2023-099AM,2026-06-20T06:44:39.333120,15.27584668,.00009089,43.0038,21.9263,254.6985,105.3767,0,U,57363,999,16189,-.29655294E-4,-.1078E-4,0
STARLINK-6338,2023-099AN,2026-06-20T07:01:18.029856,15.27575318,.00012101,43.0048,22.0138,273.5484,86.5229,0,U,57364,999,16188,.8374812E-5,-.32E-6,0
STARLINK-5007,2023-099AP,2026-06-19T23:36:25.180992,15.27575924,.00019475,43.0073,23.9851,267.5402,92.5227,0,U,57365,999,16184,.36406569E-4,.739E-5,0
STARLINK-6174,2023-099AQ,2026-06-19T23:30:51.813504,15.27577297,.00021003,43.0098,23.9612,267.7536,92.3076,0,U,57366,999,16184,.29641098E-4,.553E-5,0
STARLINK-6215,2023-099AR,2026-06-19T13:19:15.024864,15.27580505,.00007346,43.0039,7.7995,262.2782,97.7987,0,U,57367,999,16274,.2742952E-5,-.186E-5,0
STARLINK-6218,2023-099AS,2026-06-19T23:41:58.322112,15.27585030,.00019791,43.0079,24.0183,258.3076,101.7554,0,U,57368,999,16184,.6267155E-5,-.9E-6,0
STARLINK-6168,2023-099AT,2026-06-20T06:58:51.345984,15.28633371,.00023727,43.0045,22.0003,280.5461,79.5123,0,U,57369,999,16189,.10321611E-2,.29185E-3,0
STARLINK-5353,2023-099AU,2026-06-19T23:51:13.633920,15.27575618,.00017171,43.0055,24.0652,273.5391,86.5265,0,U,57370,999,16184,-.3387169E-5,-.356E-5,0
STARLINK-6032,2023-099AV,2026-06-19T23:25:19.212384,15.27575272,.0001581,43.0068,23.9348,268.1577,91.9094,0,U,57371,999,16184,.31168755E-4,.595E-5,0
